{
  "type": "FeatureCollection",
  "features": [
    {
      "type": "Feature",
      "properties": {
        "norad_id": 29486,
        "name": "GPS BIIRM-2 (PRN 31)",
        "group": "gps-ops",
        "lat": -36.20084461094363,
        "lon": 127.36885801783099,
        "alt_km": 20226.182679830963,
        "timestamp": "2025-12-15T10:55:21.401239+00:00",
        "meta_object_name": "GPS BIIRM-2 (PRN 31)",
        "meta_object_id": "2006-042A",
        "meta_epoch": "2025-12-14T18:28:39.630432",
        "meta_mean_motion": 2.00554112,
        "meta_eccentricity": 0.01073383,
        "meta_inclination": 54.6944,
        "meta_ra_of_asc_node": 158.6601,
        "meta_arg_of_pericenter": 52.0063,
        "meta_mean_anomaly": 128.102,
        "meta_ephemeris_type": 0,
        "meta_classification_type": "U",
        "meta_norad_cat_id": 29486,
        "meta_element_set_no": 999,
        "meta_rev_at_epoch": 14069,
        "meta_bstar": 0,
        "meta_mean_motion_dot": 1e-06,
        "meta_mean_motion_ddot": 0,
        "tle_line1": "1 29486U 06042A   25348.76990313  .00000100  00000+0  00000+0 0  9990",
        "tle_line2": "2 29486  54.6944 158.6601 0107338  52.0063 128.1020  2.00554112140692"
      },
      "geometry": {
        "type": "Point",
        "coordinates": [
          127.36885801783099,
          -36.20084461094363
        ]
      }
    },
    {
      "type": "Feature",
      "properties": {
        "norad_id": 29601,
        "name": "GPS BIIRM-3 (PRN 12)",
        "group": "gps-ops",
        "lat": 9.502483986163341,
        "lon": -131.96381450258082,
        "alt_km": 20121.282004072666,
        "timestamp": "2025-12-15T10:55:21.401251+00:00",
        "meta_object_name": "GPS BIIRM-3 (PRN 12)",
        "meta_object_id": "2006-052A",
        "meta_epoch": "2025-12-11T22:46:47.068032",
        "meta_mean_motion": 2.00573524,
        "meta_eccentricity": 0.00877389,
        "meta_inclination": 54.9707,
        "meta_ra_of_asc_node": 221.4296,
        "meta_arg_of_pericenter": 87.4221,
        "meta_mean_anomaly": 273.6564,
        "meta_ephemeris_type": 0,
        "meta_classification_type": "U",
        "meta_norad_cat_id": 29601,
        "meta_element_set_no": 999,
        "meta_rev_at_epoch": 13965,
        "meta_bstar": 0,
        "meta_mean_motion_dot": 9e-08,
        "meta_mean_motion_ddot": 0,
        "tle_line1": "1 29601U 06052A   25345.94915588  .00000009  00000+0  00000+0 0  9996",
        "tle_line2": "2 29601  54.9707 221.4296 0087738  87.4221 273.6564  2.00573524139650"
      },
      "geometry": {
        "type": "Point",
        "coordinates": [
          -131.96381450258082,
          9.502483986163341
        ]
      }
    },
    {
      "type": "Feature",
      "properties": {
        "norad_id": 32260,
        "name": "GPS BIIRM-4 (PRN 15)",
        "group": "gps-ops",
        "lat": 20.467496247781504,
        "lon": -108.10733457786075,
        "alt_km": 20018.139606072466,
        "timestamp": "2025-12-15T10:55:21.401263+00:00",
        "meta_object_name": "GPS BIIRM-4 (PRN 15)",
        "meta_object_id": "2007-047A",
        "meta_epoch": "2025-12-13T18:00:56.680128",
        "meta_mean_motion": 2.00564495,
        "meta_eccentricity": 0.0164139,
        "meta_inclination": 53.9559,
        "meta_ra_of_asc_node": 87.7167,
        "meta_arg_of_pericenter": 85.2596,
        "meta_mean_anomaly": 276.6041,
        "meta_ephemeris_type": 0,
        "meta_classification_type": "U",
        "meta_norad_cat_id": 32260,
        "meta_element_set_no": 999,
        "meta_rev_at_epoch": 13309,
        "meta_bstar": 0,
        "meta_mean_motion_dot": -4.4e-07,
        "meta_mean_motion_ddot": 0,
        "tle_line1": "1 32260U 07047A   25347.75065602 -.00000044  00000+0  00000+0 0  9990",
        "tle_line2": "2 32260  53.9559  87.7167 0164139  85.2596 276.6041  2.00564495133093"
      },
      "geometry": {
        "type": "Point",
        "coordinates": [
          -108.10733457786075,
          20.467496247781504
        ]
      }
    },
    {
      "type": "Feature",
      "properties": {
        "norad_id": 32384,
        "name": "GPS BIIRM-5 (PRN 29)",
        "group": "gps-ops",
        "lat": -53.36362662196712,
        "lon": -147.6618092248668,
        "alt_km": 20229.240931657987,
        "timestamp": "2025-12-15T10:55:21.401274+00:00",
        "meta_object_name": "GPS BIIRM-5 (PRN 29)",
        "meta_object_id": "2007-062A",
        "meta_epoch": "2025-12-14T07:22:44.014368",
        "meta_mean_motion": 2.00577433,
        "meta_eccentricity": 0.00322391,
        "meta_inclination": 55.1808,
        "meta_ra_of_asc_node": 281.583,
        "meta_arg_of_pericenter": 162.4014,
        "meta_mean_anomaly": 10.7862,
        "meta_ephemeris_type": 0,
        "meta_classification_type": "U",
        "meta_norad_cat_id": 32384,
        "meta_element_set_no": 999,
        "meta_rev_at_epoch": 13180,
        "meta_bstar": 0,
        "meta_mean_motion_dot": -7.8e-07,
        "meta_mean_motion_ddot": 0,
        "tle_line1": "1 32384U 07062A   25348.30745387 -.00000078  00000+0  00000+0 0  9998",
        "tle_line2": "2 32384  55.1808 281.5830 0032239 162.4014  10.7862  2.00577433131801"
      },
      "geometry": {
        "type": "Point",
        "coordinates": [
          -147.6618092248668,
          -53.36362662196712
        ]
      }
    },
    {
      "type": "Feature",
      "properties": {
        "norad_id": 32711,
        "name": "GPS BIIRM-6 (PRN 07)",
        "group": "gps-ops",
        "lat": -19.893569225366182,
        "lon": -7.755742867132272,
        "alt_km": 19770.122589026974,
        "timestamp": "2025-12-15T10:55:21.401285+00:00",
        "meta_object_name": "GPS BIIRM-6 (PRN 07)",
        "meta_object_id": "2008-012A",
        "meta_epoch": "2025-12-14T16:02:03.484896",
        "meta_mean_motion": 2.0056573,
        "meta_eccentricity": 0.0202527,
        "meta_inclination": 54.4772,
        "meta_ra_of_asc_node": 157.2959,
        "meta_arg_of_pericenter": 244.9733,
        "meta_mean_anomaly": 112.9236,
        "meta_ephemeris_type": 0,
        "meta_classification_type": "U",
        "meta_norad_cat_id": 32711,
        "meta_element_set_no": 999,
        "meta_rev_at_epoch": 13005,
        "meta_bstar": 0,
        "meta_mean_motion_dot": 9.8e-07,
        "meta_mean_motion_ddot": 0,
        "tle_line1": "1 32711U 08012A   25348.66809589  .00000098  00000+0  00000+0 0  9993",
        "tle_line2": "2 32711  54.4772 157.2959 0202527 244.9733 112.9236  2.00565730130054"
      },
      "geometry": {
        "type": "Point",
        "coordinates": [
          -7.755742867132272,
          -19.893569225366182
        ]
      }
    },
    {
      "type": "Feature",
      "properties": {
        "norad_id": 35752,
        "name": "GPS BIIRM-8 (PRN 05)",
        "group": "gps-ops",
        "lat": -36.99651649915994,
        "lon": -114.88466300598365,
        "alt_km": 20298.559231388026,
        "timestamp": "2025-12-15T10:55:21.401297+00:00",
        "meta_object_name": "GPS BIIRM-8 (PRN 05)",
        "meta_object_id": "2009-043A",
        "meta_epoch": "2025-12-14T15:32:04.041600",
        "meta_mean_motion": 2.00565642,
        "meta_eccentricity": 0.00517621,
        "meta_inclination": 56.0923,
        "meta_ra_of_asc_node": 34.7078,
        "meta_arg_of_pericenter": 81.8798,
        "meta_mean_anomaly": 280.9533,
        "meta_ephemeris_type": 0,
        "meta_classification_type": "U",
        "meta_norad_cat_id": 35752,
        "meta_element_set_no": 999,
        "meta_rev_at_epoch": 11966,
        "meta_bstar": 0,
        "meta_mean_motion_dot": -9.3e-07,
        "meta_mean_motion_ddot": 0,
        "tle_line1": "1 35752U 09043A   25348.64726900 -.00000093  00000+0  00000+0 0  9995",
        "tle_line2": "2 35752  56.0923  34.7078 0051762  81.8798 280.9533  2.00565642119663"
      },
      "geometry": {
        "type": "Point",
        "coordinates": [
          -114.88466300598365,
          -36.99651649915994
        ]
      }
    },
    {
      "type": "Feature",
      "properties": {
        "norad_id": 36585,
        "name": "GPS BIIF-1  (PRN 25)",
        "group": "gps-ops",
        "lat": -13.80552397359405,
        "lon": -154.19699370620836,
        "alt_km": 20135.11275719521,
        "timestamp": "2025-12-15T10:55:21.401308+00:00",
        "meta_object_name": "GPS BIIF-1  (PRN 25)",
        "meta_object_id": "2010-022A",
        "meta_epoch": "2025-12-14T05:35:49.434720",
        "meta_mean_motion": 2.00553343,
        "meta_eccentricity": 0.01261835,
        "meta_inclination": 54.2999,
        "meta_ra_of_asc_node": 216.0137,
        "meta_arg_of_pericenter": 65.0918,
        "meta_mean_anomaly": 117.1041,
        "meta_ephemeris_type": 0,
        "meta_classification_type": "U",
        "meta_norad_cat_id": 36585,
        "meta_element_set_no": 999,
        "meta_rev_at_epoch": 11388,
        "meta_bstar": 0,
        "meta_mean_motion_dot": 4.9e-07,
        "meta_mean_motion_ddot": 0,
        "tle_line1": "1 36585U 10022A   25348.23321105  .00000049  00000+0  00000+0 0  9992",
        "tle_line2": "2 36585  54.2999 216.0137 0126183  65.0918 117.1041  2.00553343113888"
      },
      "geometry": {
        "type": "Point",
        "coordinates": [
          -154.19699370620836,
          -13.80552397359405
        ]
      }
    }
  ]
}